STARLINK-3399           
1 51121U 22005T   25299.93186344  .00002227  00000+0  15805-3 0  9998
2 51121  53.2159 169.5924 0001496  83.0423 277.0740 15.08826494208681
STARLINK-3392           
1 51123U 22005V   25299.91250525  .00001693  00000+0  12443-3 0  9992
2 51123  53.2147 169.6708 0001200  83.8331 276.2798 15.08838870208685
STARLINK-3389           
1 51124U 22005W   25299.95573013  .00000679  00000+0  60749-4 0  9993
2 51124  53.2167 179.4757 0001304  81.5951 278.5189 15.08840019208552
STARLINK-3387           
1 51125U 22005X   25299.94565001  .00002161  00000+0  15377-3 0  9995
2 51125  53.2149 179.5315 0001331  85.5701 274.5443 15.08849805208530
STARLINK-3386           
1 51126U 22005Y   25299.95302108  .00000088  00000+0  23639-4 0  9991
2 51126  53.2172 179.4981 0001452  88.1574 271.9584 15.08838634208553
STARLINK-3370           
1 51127U 22005Z   25299.94934020 -.00000140  00000+0  92718-5 0  9990
2 51127  53.2162 179.5133 0001479  94.1885 265.9277 15.08838109208542
STARLINK-3400           
1 51128U 22005AA  25299.92998571  .00000587  00000+0  54947-4 0  9995
2 51128  53.2162 179.5923 0001438  87.6314 272.4843 15.08841285208539
STARLINK-3396           
1 51129U 22005AB  25299.95670036  .00000495  00000+0  49221-4 0  9999
2 51129  53.2163 179.4710 0001421  91.6343 268.4812 15.08838900208545
STARLINK-3395           
1 51130U 22005AC  25299.94097798 -.00026270  00000+0 -16332-2 0  9994
2 51130  53.2158 179.5408 0001909  64.7594 295.3596 15.08957739208535
STARLINK-3388           
1 51131U 22005AD  25299.93366677  .00001227  00000+0  95146-4 0  9994
2 51131  53.2162 179.5753 0001412  91.4741 268.6412 15.08843026208537
STARLINK-3393           
1 51132U 22005AE  25299.93734253  .00000819  00000+0  69552-4 0  9992
2 51132  53.2154 179.5580 0001340  87.4893 272.6252 15.08838804208535
STARLINK-3356           
1 51133U 22005AF  25299.92630670  .00000891  00000+0  74067-4 0  9997
2 51133  53.2178 179.6106 0001503  89.1642 270.9523 15.08839459208538
STARLINK-3183           
1 51134U 22005AG  25300.00002315  .01417584  00000+0  14025-1 0  9996
2 51134  53.2171 164.2991 0001501  90.8790 147.3171 15.62518350  5811
STARLINK-3363           
1 51135U 22005AH  25299.91255814 -.00002590  00000+0 -14482-3 0  9995
2 51135  53.2182 179.5682 0001690  95.2488 264.8697 15.08815073208536
STARLINK-3253           
1 51136U 22005AJ  25299.97044483 -.00002532  00000+0 -14108-3 0  9991
2 51136  53.2177 179.2090 0001687  98.8274 261.2909 15.08824210208540
STARLINK-3180           
1 51137U 22005AK  25299.91159164 -.00000586  00000+0 -18746-4 0  9999
2 51137  53.2174 179.6762 0001409  91.4945 268.6209 15.08832538208540
