[{"OBJECT_NAME":"STARLINK-3399","OBJECT_ID":"2022-005T","EPOCH":"2025-10-26T22:21:53.001216","MEAN_MOTION":15.08826494,"ECCENTRICITY":0.00014964,"INCLINATION":53.2159,"RA_OF_ASC_NODE":169.5924,"ARG_OF_PERICENTER":83.0423,"MEAN_ANOMALY":277.074,"EPHEMERIS_TYPE":0,"CLASSIFICATION_TYPE":"U","NORAD_CAT_ID":51121,"ELEMENT_SET_NO":999,"REV_AT_EPOCH":20868,"BSTAR":0.00015805136,"MEAN_MOTION_DOT":2.227e-5,"MEAN_MOTION_DDOT":0},{"OBJECT_NAME":"STARLINK-3392","OBJECT_ID":"2022-005V","EPOCH":"2025-10-26T21:54:00.453600","MEAN_MOTION":15.0883887,"ECCENTRICITY":0.00012004,"INCLINATION":53.2147,"RA_OF_ASC_NODE":169.6708,"ARG_OF_PERICENTER":83.8331,"MEAN_ANOMALY":276.2798,"EPHEMERIS_TYPE":0,"CLASSIFICATION_TYPE":"U","NORAD_CAT_ID":51123,"ELEMENT_SET_NO":999,"REV_AT_EPOCH":20868,"BSTAR":0.00012443303,"MEAN_MOTION_DOT":1.693e-5,"MEAN_MOTION_DDOT":0},{"OBJECT_NAME":"STARLINK-3389","OBJECT_ID":"2022-005W","EPOCH":"2025-10-26T22:56:15.083232","MEAN_MOTION":15.08840019,"ECCENTRICITY":0.00013048,"INCLINATION":53.2167,"RA_OF_ASC_NODE":179.4757,"ARG_OF_PERICENTER":81.5951,"MEAN_ANOMALY":278.5189,"EPHEMERIS_TYPE":0,"CLASSIFICATION_TYPE":"U","NORAD_CAT_ID":51124,"ELEMENT_SET_NO":999,"REV_AT_EPOCH":20855,"BSTAR":6.0748586e-5,"MEAN_MOTION_DOT":6.79e-6,"MEAN_MOTION_DDOT":0},{"OBJECT_NAME":"STARLINK-3387","OBJECT_ID":"2022-005X","EPOCH":"2025-10-26T22:41:44.160864","MEAN_MOTION":15.08849805,"ECCENTRICITY":0.00013313,"INCLINATION":53.2149,"RA_OF_ASC_NODE":179.5315,"ARG_OF_PERICENTER":85.5701,"MEAN_ANOMALY":274.5443,"EPHEMERIS_TYPE":0,"CLASSIFICATION_TYPE":"U","NORAD_CAT_ID":51125,"ELEMENT_SET_NO":999,"REV_AT_EPOCH":20853,"BSTAR":0.00015377349,"MEAN_MOTION_DOT":2.161e-5,"MEAN_MOTION_DDOT":0},{"OBJECT_NAME":"STARLINK-3386","OBJECT_ID":"2022-005Y","EPOCH":"2025-10-26T22:52:21.021312","MEAN_MOTION":15.08838634,"ECCENTRICITY":0.00014524,"INCLINATION":53.2172,"RA_OF_ASC_NODE":179.4981,"ARG_OF_PERICENTER":88.1574,"MEAN_ANOMALY":271.9584,"EPHEMERIS_TYPE":0,"CLASSIFICATION_TYPE":"U","NORAD_CAT_ID":51126,"ELEMENT_SET_NO":999,"REV_AT_EPOCH":20855,"BSTAR":2.3639219e-5,"MEAN_MOTION_DOT":8.8e-7,"MEAN_MOTION_DDOT":0},{"OBJECT_NAME":"STARLINK-3370","OBJECT_ID":"2022-005Z","EPOCH":"2025-10-26T22:47:02.993280","MEAN_MOTION":15.08838109,"ECCENTRICITY":0.00014796,"INCLINATION":53.2162,"RA_OF_ASC_NODE":179.5133,"ARG_OF_PERICENTER":94.1885,"MEAN_ANOMALY":265.9277,"EPHEMERIS_TYPE":0,"CLASSIFICATION_TYPE":"U","NORAD_CAT_ID":51127,"ELEMENT_SET_NO":999,"REV_AT_EPOCH":20854,"BSTAR":9.271833e-6,"MEAN_MOTION_DOT":-1.4e-6,"MEAN_MOTION_DDOT":0},{"OBJECT_NAME":"STARLINK-3400","OBJECT_ID":"2022-005AA","EPOCH":"2025-10-26T22:19:10.765344","MEAN_MOTION":15.08841285,"ECCENTRICITY":0.00014383,"INCLINATION":53.2162,"RA_OF_ASC_NODE":179.5923,"ARG_OF_PERICENTER":87.6314,"MEAN_ANOMALY":272.4843,"EPHEMERIS_TYPE":0,"CLASSIFICATION_TYPE":"U","NORAD_CAT_ID":51128,"ELEMENT_SET_NO":999,"REV_AT_EPOCH":20853,"BSTAR":5.4947146e-5,"MEAN_MOTION_DOT":5.87e-6,"MEAN_MOTION_DDOT":0},{"OBJECT_NAME":"STARLINK-3396","OBJECT_ID":"2022-005AB","EPOCH":"2025-10-26T22:57:38.911104","MEAN_MOTION":15.088389,"ECCENTRICITY":0.0001421,"INCLINATION":53.2163,"RA_OF_ASC_NODE":179.471,"ARG_OF_PERICENTER":91.6343,"MEAN_ANOMALY":268.4812,"EPHEMERIS_TYPE":0,"CLASSIFICATION_TYPE":"U","NORAD_CAT_ID":51129,"ELEMENT_SET_NO":999,"REV_AT_EPOCH":20854,"BSTAR":4.9221399e-5,"MEAN_MOTION_DOT":4.95e-6,"MEAN_MOTION_DDOT":0},{"OBJECT_NAME":"STARLINK-3395","OBJECT_ID":"2022-005AC","EPOCH":"2025-10-26T22:35:00.497472","MEAN_MOTION":15.08957739,"ECCENTRICITY":0.00019097,"INCLINATION":53.2158,"RA_OF_ASC_NODE":179.5408,"ARG_OF_PERICENTER":64.7594,"MEAN_ANOMALY":295.3596,"EPHEMERIS_TYPE":0,"CLASSIFICATION_TYPE":"U","NORAD_CAT_ID":51130,"ELEMENT_SET_NO":999,"REV_AT_EPOCH":20853,"BSTAR":-0.0016331844,"MEAN_MOTION_DOT":-0.0002627,"MEAN_MOTION_DDOT":0},{"OBJECT_NAME":"STARLINK-3388","OBJECT_ID":"2022-005AD","EPOCH":"2025-10-26T22:24:28.808928","MEAN_MOTION":15.08843026,"ECCENTRICITY":0.00014121,"INCLINATION":53.2162,"RA_OF_ASC_NODE":179.5753,"ARG_OF_PERICENTER":91.4741,"MEAN_ANOMALY":268.6412,"EPHEMERIS_TYPE":0,"CLASSIFICATION_TYPE":"U","NORAD_CAT_ID":51131,"ELEMENT_SET_NO":999,"REV_AT_EPOCH":20853,"BSTAR":9.51459e-5,"MEAN_MOTION_DOT":1.227e-5,"MEAN_MOTION_DDOT":0},{"OBJECT_NAME":"STARLINK-3393","OBJECT_ID":"2022-005AE","EPOCH":"2025-10-26T22:29:46.394592","MEAN_MOTION":15.08838804,"ECCENTRICITY":0.00013401,"INCLINATION":53.2154,"RA_OF_ASC_NODE":179.558,"ARG_OF_PERICENTER":87.4893,"MEAN_ANOMALY":272.6252,"EPHEMERIS_TYPE":0,"CLASSIFICATION_TYPE":"U","NORAD_CAT_ID":51132,"ELEMENT_SET_NO":999,"REV_AT_EPOCH":20853,"BSTAR":6.9552382e-5,"MEAN_MOTION_DOT":8.19e-6,"MEAN_MOTION_DDOT":0},{"OBJECT_NAME":"STARLINK-3356","OBJECT_ID":"2022-005AF","EPOCH":"2025-10-26T22:13:52.898880","MEAN_MOTION":15.08839459,"ECCENTRICITY":0.00015035,"INCLINATION":53.2178,"RA_OF_ASC_NODE":179.6106,"ARG_OF_PERICENTER":89.1642,"MEAN_ANOMALY":270.9523,"EPHEMERIS_TYPE":0,"CLASSIFICATION_TYPE":"U","NORAD_CAT_ID":51133,"ELEMENT_SET_NO":999,"REV_AT_EPOCH":20853,"BSTAR":7.4067085e-5,"MEAN_MOTION_DOT":8.91e-6,"MEAN_MOTION_DDOT":0},{"OBJECT_NAME":"STARLINK-3183","OBJECT_ID":"2022-005AG","EPOCH":"2025-10-27T00:00:02.000160","MEAN_MOTION":15.6251835,"ECCENTRICITY":0.00015013,"INCLINATION":53.2171,"RA_OF_ASC_NODE":164.2991,"ARG_OF_PERICENTER":90.879,"MEAN_ANOMALY":147.3171,"EPHEMERIS_TYPE":0,"CLASSIFICATION_TYPE":"U","NORAD_CAT_ID":51134,"ELEMENT_SET_NO":999,"REV_AT_EPOCH":581,"BSTAR":0.014025417,"MEAN_MOTION_DOT":0.01417584,"MEAN_MOTION_DDOT":0},{"OBJECT_NAME":"STARLINK-3363","OBJECT_ID":"2022-005AH","EPOCH":"2025-10-26T21:54:05.023296","MEAN_MOTION":15.08815073,"ECCENTRICITY":0.00016905,"INCLINATION":53.2182,"RA_OF_ASC_NODE":179.5682,"ARG_OF_PERICENTER":95.2488,"MEAN_ANOMALY":264.8697,"EPHEMERIS_TYPE":0,"CLASSIFICATION_TYPE":"U","NORAD_CAT_ID":51135,"ELEMENT_SET_NO":999,"REV_AT_EPOCH":20853,"BSTAR":-0.00014481539,"MEAN_MOTION_DOT":-2.59e-5,"MEAN_MOTION_DDOT":0},{"OBJECT_NAME":"STARLINK-3253","OBJECT_ID":"2022-005AJ","EPOCH":"2025-10-26T23:17:26.433312","MEAN_MOTION":15.0882421,"ECCENTRICITY":0.00016874,"INCLINATION":53.2177,"RA_OF_ASC_NODE":179.209,"ARG_OF_PERICENTER":98.8274,"MEAN_ANOMALY":261.2909,"EPHEMERIS_TYPE":0,"CLASSIFICATION_TYPE":"U","NORAD_CAT_ID":51136,"ELEMENT_SET_NO":999,"REV_AT_EPOCH":20854,"BSTAR":-0.00014108397,"MEAN_MOTION_DOT":-2.532e-5,"MEAN_MOTION_DDOT":0},{"OBJECT_NAME":"STARLINK-3180","OBJECT_ID":"2022-005AK","EPOCH":"2025-10-26T21:52:41.517696","MEAN_MOTION":15.08832538,"ECCENTRICITY":0.0001409,"INCLINATION":53.2174,"RA_OF_ASC_NODE":179.6762,"ARG_OF_PERICENTER":91.4945,"MEAN_ANOMALY":268.6209,"EPHEMERIS_TYPE":0,"CLASSIFICATION_TYPE":"U","NORAD_CAT_ID":51137,"ELEMENT_SET_NO":999,"REV_AT_EPOCH":20854,"BSTAR":-1.8746245e-5,"MEAN_MOTION_DOT":-5.86e-6,"MEAN_MOTION_DDOT":0}]
